{
"type": "FeatureCollection",
"name": "geosadak_wayanad_proposals_sample5",
"crs": { "type": "name", "properties": { "name": "urn:ogc:def:crs:OGC:1.3:CRS84" } },
"features": [
{ "type": "Feature", "properties": { "MRL_ID": 243050, "STATE_ID": 18, "DISTRICT_I": 587, "BLOCK_ID": 7105, "CN_CODE": 581491, "PROPOSED_L": 6.3, "WORK_NAME": "T05-Chundakkara-Chathumukku-Panthaladi-Arincherimala-Chundakunnu road", "IMS_YEAR": 2021, "IMS_BATCH": 1 }, "geometry": { "type": "LineString", "coordinates": [ [ 76.058680344876365, 11.680004537491632 ], [ 76.05899786429498, 11.680215713717637 ], [ 76.059375632821428, 11.680455351135862 ], [ 76.05957882185723, 11.680659692533908 ], [ 76.059684286766526, 11.680856967057853 ], [ 76.059739951771405, 11.681073985674471 ], [ 76.059978701516059, 11.681363543259788 ], [ 76.060216413706527, 11.681920047262057 ], [ 76.060318220675995, 11.682152676336235 ], [ 76.060544884486802, 11.682478203115249 ], [ 76.060730212319811, 11.682603156596224 ], [ 76.061147529176623, 11.682960631972371 ], [ 76.061382952459752, 11.683159298309933 ], [ 76.061536460168782, 11.683407930790571 ], [ 76.061817987687249, 11.68423424652353 ], [ 76.061913374397378, 11.684814567011987 ], [ 76.062029772702004, 11.685462434707661 ], [ 76.061840000004963, 11.685797166255284 ], [ 76.061669739614231, 11.686113278655606 ], [ 76.061468208868433, 11.686511261158925 ], [ 76.061459841959874, 11.686527648092296 ], [ 76.061202895042527, 11.686846183212158 ], [ 76.06092315517148, 11.68720275494837 ], [ 76.060658544726451, 11.687481499129598 ], [ 76.060603866970041, 11.687707194216795 ], [ 76.060713412027354, 11.68820383676888 ], [ 76.060800634848206, 11.688814586090853 ], [ 76.060755542115885, 11.689512448321016 ], [ 76.061028438621094, 11.689832347915287 ], [ 76.061272386916272, 11.690123329348372 ], [ 76.061442149640357, 11.690332032113808 ], [ 76.06177495209694, 11.690683140944934 ], [ 76.061676030516153, 11.69097331393818 ], [ 76.061609076383078, 11.691071212573412 ], [ 76.061277057257456, 11.691379278695143 ], [ 76.061080780757749, 11.691509510626043 ], [ 76.060755181891452, 11.691633455441314 ], [ 76.060609350286541, 11.691722372339814 ], [ 76.060342090709739, 11.691993775471817 ], [ 76.05997600477356, 11.692359193630349 ], [ 76.059860825482787, 11.6925557464062 ], [ 76.059633574173787, 11.693103588656045 ], [ 76.05935687753157, 11.693554936316641 ], [ 76.059519716304777, 11.693902226548309 ], [ 76.059682717409714, 11.694305636850261 ], [ 76.059827631834722, 11.694681059937039 ], [ 76.059935859063529, 11.694984631343015 ], [ 76.060270826459927, 11.695465006387741 ], [ 76.06046802013951, 11.695668883684744 ], [ 76.060644369311262, 11.695815118207097 ], [ 76.060830556831988, 11.696036957973744 ], [ 76.060932363801456, 11.696212520262838 ], [ 76.060968296720958, 11.696322322401107 ], [ 76.06075708092996, 11.696735964910445 ], [ 76.060609936886422, 11.69741669516587 ], [ 76.060467000067533, 11.697734107773828 ], [ 76.060617850145775, 11.69806176685344 ], [ 76.060794866765747, 11.698521047696374 ], [ 76.061020493022397, 11.69907339604045 ], [ 76.061130554611026, 11.699540421422297 ], [ 76.061203929003426, 11.699788303804736 ], [ 76.061341505989191, 11.700108933948245 ], [ 76.061553374547259, 11.700546319567243 ], [ 76.06183403159821, 11.701108543187051 ], [ 76.062101379209935, 11.70165950972015 ], [ 76.062250204001373, 11.701989024743442 ], [ 76.062376774828266, 11.702268338997889 ], [ 76.062483167697252, 11.702641209114875 ], [ 76.062522606433163, 11.703030092597404 ], [ 76.062580388767188, 11.703122598287578 ], [ 76.062959962907343, 11.703264881923898 ], [ 76.063583645242801, 11.703502881735941 ], [ 76.063635007317487, 11.703578323143043 ], [ 76.063606574740433, 11.703797462351748 ], [ 76.063664357074444, 11.703847756571866 ], [ 76.064227505536181, 11.703854043348741 ], [ 76.064675895118654, 11.704050448097426 ], [ 76.064886846496833, 11.704161813756404 ], [ 76.065381280127525, 11.704585844487454 ], [ 76.065685783856011, 11.704611889635482 ], [ 76.066152412832025, 11.704725949392817 ], [ 76.066424749686831, 11.704856110829086 ], [ 76.066768360672896, 11.705061983254431 ], [ 76.067206530122405, 11.705325836599844 ], [ 76.06754370288283, 11.70564757130081 ], [ 76.067765745424865, 11.705821530350379 ], [ 76.067788341279666, 11.706021425980341 ], [ 76.067550123142155, 11.706115483686585 ], [ 76.067028071706375, 11.706343380246931 ], [ 76.066648632313516, 11.706530234843664 ], [ 76.06628434929614, 11.706709485797006 ], [ 76.065962419149443, 11.706907068100007 ], [ 76.065473138255228, 11.707315066048738 ], [ 76.064900705705057, 11.707801602573646 ], [ 76.064491696467982, 11.708144835066488 ], [ 76.064244141436916, 11.708272364816171 ], [ 76.063979942420303, 11.708368935255406 ], [ 76.063598395579774, 11.708431801989816 ], [ 76.06310678715063, 11.708482993462985 ], [ 76.062611699753177, 11.708433257778152 ], [ 76.062346661503312, 11.708831100858715 ], [ 76.062041240594908, 11.709236142199359 ], [ 76.062121035246662, 11.709596628423016 ], [ 76.062200322350265, 11.70998032116756 ], [ 76.06229479188049, 11.710410506456771 ], [ 76.062492865010739, 11.710875698045147 ], [ 76.062475438592543, 11.710981672428172 ], [ 76.062347033405828, 11.711172066980332 ], [ 76.062238806177049, 11.711409161899681 ], [ 76.062247060796182, 11.711793372859287 ], [ 76.062208539240174, 11.712151708614636 ], [ 76.062142502287003, 11.712400477775567 ], [ 76.062063624815181, 11.71261960999176 ], [ 76.06193705398826, 11.712764201235981 ], [ 76.061797642642688, 11.712814493824933 ], [ 76.061887661020677, 11.713263033015135 ], [ 76.062039912884913, 11.713514495414479 ], [ 76.062216011426699, 11.713651003478299 ], [ 76.062358995372165, 11.713740291530444 ], [ 76.062725751451524, 11.713911318764772 ], [ 76.063036620642109, 11.714031386793572 ], [ 76.06322831124227, 11.714196633079446 ], [ 76.063369556947649, 11.714319669652037 ], [ 76.06356601670366, 11.714427852281988 ], [ 76.064095229508894, 11.714642492510945 ], [ 76.064450334439016, 11.714779281490756 ], [ 76.064867106018454, 11.714946348108134 ], [ 76.065279355478751, 11.715109914685193 ], [ 76.065835166501245, 11.715324554384324 ], [ 76.066437753698892, 11.715534703551644 ], [ 76.06682663797865, 11.715668516399672 ], [ 76.067189191698574, 11.715795568612871 ], [ 76.067263216859601, 11.71588203952891 ], [ 76.067268005430549, 11.715988828184022 ], [ 76.067095575608391, 11.716430679911376 ], [ 76.066973622122063, 11.716759281018588 ], [ 76.066909419528699, 11.716876029969436 ], [ 76.066815867178377, 11.716993676939222 ], [ 76.066506694007046, 11.717163249066793 ], [ 76.066267310051828, 11.71729167272221 ], [ 76.06615633128331, 11.717377887170684 ], [ 76.066111389467963, 11.717492839726805 ], [ 76.066044435334888, 11.718094543732162 ], [ 76.066024257376966, 11.718290321767725 ], [ 76.066007748138674, 11.718680081296982 ], [ 76.065996706945526, 11.71898015021454 ], [ 76.066018719263255, 11.719400571247585 ], [ 76.066021972961195, 11.719631085062765 ], [ 76.066051322718167, 11.719806206649853 ], [ 76.066308133091596, 11.720486036579366 ], [ 76.066434281710301, 11.720860984326968 ], [ 76.066622303590862, 11.721389040577508 ], [ 76.066684305311767, 11.721575421460901 ], [ 76.066687037088542, 11.721583634119384 ] ] } },
{ "type": "Feature", "properties": { "MRL_ID": 239690, "STATE_ID": 18, "DISTRICT_I": 587, "BLOCK_ID": 7105, "CN_CODE": 581485, "PROPOSED_L": 4.27, "WORK_NAME": "MRL07-Kulakkattil kavala-Alathoor-Alathoorpalli-Pallithazham-Muthalimaran-Kappisettu road", "IMS_YEAR": 2021, "IMS_BATCH": 1 }, "geometry": { "type": "LineString", "coordinates": [ [ 76.200017641917384, 11.813920702176153 ], [ 76.200250401782029, 11.8137648245115 ], [ 76.200588779935458, 11.813498672922098 ], [ 76.20078093038687, 11.813347506862081 ], [ 76.20111084908649, 11.813233948709248 ], [ 76.201376717635554, 11.813010380958248 ], [ 76.201706636335132, 11.8128542382938 ], [ 76.201849238556917, 11.812752508934251 ], [ 76.202066767369857, 11.812533672393197 ], [ 76.202306049064063, 11.812376346555665 ], [ 76.202609380908683, 11.812518294683747 ], [ 76.202976762903802, 11.812695729740396 ], [ 76.203189457743107, 11.81279745912104 ], [ 76.203540144141002, 11.812935834597528 ], [ 76.203772174874771, 11.813136927346553 ], [ 76.204007877749362, 11.813464965572228 ], [ 76.204272537805139, 11.81382929750526 ], [ 76.204412723040136, 11.814020926444407 ], [ 76.204693093510045, 11.814270517022157 ], [ 76.204967421513047, 11.81451892448036 ], [ 76.205076185919509, 11.814490535067966 ], [ 76.205361390363137, 11.814397086564734 ], [ 76.205722729891249, 11.814147496102297 ], [ 76.205981347479934, 11.813831663295453 ], [ 76.206254466989463, 11.813376248307399 ], [ 76.206449034427635, 11.812885345589235 ], [ 76.206683482148222, 11.812424014522191 ], [ 76.206739072844869, 11.812319919199652 ], [ 76.206855088211796, 11.811974511709655 ], [ 76.207151169095994, 11.811571141452669 ], [ 76.207343319547419, 11.811024638866829 ], [ 76.207560848360245, 11.810512439566338 ], [ 76.207576558774505, 11.810048738681003 ], [ 76.207531844518527, 11.809603963625106 ], [ 76.207507674650415, 11.809440721535193 ], [ 76.207395284763763, 11.808939165520144 ], [ 76.207240597607964, 11.808620960874286 ], [ 76.207047238663137, 11.808311036291544 ], [ 76.206861130678746, 11.808099293722425 ], [ 76.206625474464801, 11.807637954597508 ], [ 76.206478023822271, 11.807353677010738 ], [ 76.206288220984717, 11.80693973061477 ], [ 76.20625941314205, 11.806868304133124 ], [ 76.206280367645832, 11.806145791154265 ], [ 76.20626144467461, 11.805784196296722 ], [ 76.206064249915883, 11.805052479736249 ] ] } },
{ "type": "Feature", "properties": { "MRL_ID": 239690, "STATE_ID": 18, "DISTRICT_I": 587, "BLOCK_ID": 7105, "CN_CODE": 581485, "PROPOSED_L": 4.27, "WORK_NAME": "MRL07-Kulakkattil kavala-Alathoor-Alathoorpalli-Pallithazham-Muthalimaran-Kappisettu road", "IMS_YEAR": 2021, "IMS_BATCH": 1 }, "geometry": { "type": "LineString", "coordinates": [ [ 76.180502349493977, 11.821196116530178 ], [ 76.18098126602591, 11.820989459032861 ], [ 76.181413835796675, 11.820883610010396 ], [ 76.181638476224791, 11.820784674891335 ], [ 76.18207879678765, 11.820478977656059 ], [ 76.182790477697367, 11.820186643915052 ], [ 76.183404878482747, 11.819964470063107 ], [ 76.183758158934324, 11.819865911680088 ], [ 76.184102906041687, 11.81984586590292 ], [ 76.184249679562626, 11.819809115307649 ], [ 76.185258320851929, 11.81944495005151 ], [ 76.185761384408423, 11.819242645400873 ], [ 76.186529385390088, 11.818853422079259 ], [ 76.187019199349535, 11.818654633989096 ], [ 76.187829867052415, 11.818175203295521 ], [ 76.18831504862473, 11.817739204618906 ], [ 76.188932862747777, 11.817007527118912 ], [ 76.189096702957158, 11.816920661167181 ], [ 76.189781077165307, 11.816596584104062 ], [ 76.190607104887818, 11.81633932678093 ], [ 76.191349505836712, 11.816036965592208 ], [ 76.191985324187755, 11.815812701029678 ], [ 76.192243094936231, 11.815695142805138 ], [ 76.192940502154954, 11.815497232924598 ], [ 76.193116746149755, 11.815488766188535 ], [ 76.193292990144514, 11.815542741626356 ], [ 76.193741709517766, 11.81584754389913 ], [ 76.193901734740052, 11.815912102670323 ], [ 76.194441279239399, 11.815948086241107 ], [ 76.194870536085659, 11.815968194705071 ], [ 76.195292224171354, 11.815969253045242 ], [ 76.195997200150529, 11.81605497858525 ], [ 76.19619506917536, 11.81610048719434 ], [ 76.196312925589055, 11.816181979335932 ], [ 76.19662432602162, 11.81595549462274 ], [ 76.196786513746886, 11.815905752627931 ], [ 76.197084939161385, 11.815875060754296 ], [ 76.197345520773325, 11.815895169223618 ], [ 76.197752071337987, 11.815549091677171 ], [ 76.198099230692392, 11.815241038065604 ], [ 76.198695129391481, 11.814840498365305 ], [ 76.199186568508111, 11.814464134647721 ], [ 76.199342268724322, 11.814347716565017 ], [ 76.199678537941409, 11.814039737580369 ], [ 76.199973719601402, 11.81384817659394 ] ] } },
{ "type": "Feature", "properties": { "MRL_ID": 234656, "STATE_ID": 18, "DISTRICT_I": 587, "BLOCK_ID": 3622, "CN_CODE": 581390, "PROPOSED_L": 8.33, "WORK_NAME": "T02-Vellamunda-Pulinjal-Mothakkara-Athikolly-Thottolipadi road", "IMS_YEAR": 2020, "IMS_BATCH": 1 }, "geometry": { "type": "LineString", "coordinates": [ [ 75.938596869783709, 11.732026981745328 ], [ 75.938501715737232, 11.731838614860033 ], [ 75.93841547746996, 11.731575809755929 ], [ 75.93819883706108, 11.731398207385768 ], [ 75.93792400109318, 11.731279834767342 ], [ 75.93778500117601, 11.730889080661333 ], [ 75.937691925831118, 11.730474096934401 ], [ 75.937918074907245, 11.730118610962995 ], [ 75.938071147831664, 11.729784212769127 ], [ 75.938134124224661, 11.728979520761929 ], [ 75.938703637250171, 11.728618880404433 ], [ 75.93888420580879, 11.72824778335587 ], [ 75.939014971768074, 11.728103931133337 ], [ 75.939303426195707, 11.72782225146484 ], [ 75.939911972816944, 11.726775984671898 ], [ 75.940046708431439, 11.726458994328857 ], [ 75.94049806708145, 11.725693963607245 ], [ 75.940563856862411, 11.725087460733812 ], [ 75.94037411201316, 11.724502781144878 ], [ 75.939316419427968, 11.722455580981068 ], [ 75.938781867036681, 11.721466286403521 ], [ 75.938283320918615, 11.720805097285584 ], [ 75.938141942262561, 11.720526414834229 ], [ 75.938012775601422, 11.720102653461922 ], [ 75.938097296891257, 11.719599289701243 ], [ 75.938519572448456, 11.719091100848662 ], [ 75.93867769300644, 11.718439014221348 ], [ 75.938612584911269, 11.717923536679217 ], [ 75.939035468627907, 11.717153540963269 ], [ 75.94002139929664, 11.716565201281533 ], [ 75.940472243076499, 11.715914279439563 ], [ 75.940691752704367, 11.715600982388308 ], [ 75.941138210909003, 11.715076392142906 ], [ 75.941677682474776, 11.713834558128308 ], [ 75.941770694937617, 11.71364694321055 ], [ 75.942034849936803, 11.713237104790483 ], [ 75.942253719065874, 11.71299370551897 ], [ 75.942555078690887, 11.712521933607302 ], [ 75.943003603918967, 11.712206610481905 ], [ 75.943500289626101, 11.711909703453317 ], [ 75.943823428006837, 11.711637650474367 ], [ 75.944326238427564, 11.711159237791181 ], [ 75.945010809471285, 11.710813148528448 ], [ 75.945299147117936, 11.71063645992124 ], [ 75.945864661742092, 11.710219331158587 ], [ 75.946405102590077, 11.70941411946659 ], [ 75.947044776734202, 11.708813428357917 ], [ 75.947154531099002, 11.708620345811353 ], [ 75.947095003338376, 11.708261502332917 ], [ 75.947381480574052, 11.707274225818079 ], [ 75.94751161533658, 11.706458784738752 ], [ 75.94736992868404, 11.706313829122768 ], [ 75.947476353447854, 11.705611148340697 ], [ 75.94743406974743, 11.704791564057402 ], [ 75.947561924266864, 11.704784160164625 ], [ 75.948508349724349, 11.704717726557334 ], [ 75.949027358566255, 11.705062002606402 ], [ 75.949280412086893, 11.705122152725371 ], [ 75.949507301473119, 11.704792411146464 ], [ 75.949635658150811, 11.704231797713646 ], [ 75.949795639119756, 11.704071499591747 ], [ 75.950117462366919, 11.704031425046752 ], [ 75.950370053353438, 11.704062174550524 ], [ 75.950742102306478, 11.704073103171579 ], [ 75.951246228759061, 11.703982025452037 ], [ 75.951666182171266, 11.703569549619136 ], [ 75.951890823791203, 11.703436286664205 ], [ 75.952082877393892, 11.703615089430217 ], [ 75.952222395638969, 11.70383185622441 ], [ 75.953012561847743, 11.704241708587608 ], [ 75.953726896771769, 11.704545910758798 ], [ 75.954753439376177, 11.705258687100519 ], [ 75.955214370338354, 11.705612230289258 ] ] } },
{ "type": "Feature", "properties": { "MRL_ID": 236310, "STATE_ID": 18, "DISTRICT_I": 587, "BLOCK_ID": 5220, "CN_CODE": 581179, "PROPOSED_L": 5.67, "WORK_NAME": "T04-Madakkara-Cherumad-Kazhambu-Nambikolly road", "IMS_YEAR": 2020, "IMS_BATCH": 1 }, "geometry": { "type": "LineString", "coordinates": [ [ 76.275290992555099, 11.619139457647131 ], [ 76.27532290520557, 11.619164605388919 ], [ 76.275441237582996, 11.619282504976235 ], [ 76.275766203137039, 11.619655802452419 ], [ 76.275910306383338, 11.619775056005729 ], [ 76.276024310677727, 11.61987796615861 ], [ 76.276457931956955, 11.620458597945776 ], [ 76.276994909799498, 11.621040403190779 ], [ 76.277533637560225, 11.621586698006848 ], [ 76.277725880624288, 11.621802369161323 ], [ 76.278100105296915, 11.622406007997668 ], [ 76.278230130146099, 11.622424875622269 ], [ 76.278330033585462, 11.622433984312279 ], [ 76.278665994518576, 11.622401409657408 ], [ 76.278797825879778, 11.622419639357227 ], [ 76.27892620950692, 11.622458898584126 ], [ 76.27901138147395, 11.622525761914698 ], [ 76.27927878927278, 11.6228723519858 ], [ 76.279303875625416, 11.622874189207057 ], [ 76.279603339805163, 11.622890199780301 ], [ 76.279998562597569, 11.622804311438307 ], [ 76.280064402819676, 11.62279258595122 ], [ 76.280116276934081, 11.622795322426185 ], [ 76.280130468518934, 11.622796954632294 ], [ 76.280155780348679, 11.622828153084551 ], [ 76.280218648045533, 11.622938985564526 ], [ 76.280325766753279, 11.623220602865819 ], [ 76.28045036937138, 11.623706800267545 ], [ 76.28054714757188, 11.623987576495947 ], [ 76.280695684004129, 11.624848818457339 ], [ 76.280788348818945, 11.624869260037768 ], [ 76.280908624252348, 11.624872088000787 ], [ 76.281202315858053, 11.624816451738697 ], [ 76.281407300626128, 11.624750510202107 ], [ 76.281516909463818, 11.624677248848922 ], [ 76.281903733906631, 11.624324924136664 ], [ 76.281959618100458, 11.624254858435211 ], [ 76.282077176130116, 11.624040171138533 ], [ 76.282481446754062, 11.623817329714967 ], [ 76.283171947576975, 11.622697043362633 ], [ 76.283679379829834, 11.622025946031698 ], [ 76.2839666260234, 11.621688754868469 ], [ 76.284306606917397, 11.621133777392222 ], [ 76.284651032675441, 11.620615061349305 ], [ 76.284973369758944, 11.620051026640811 ], [ 76.285019592571885, 11.6198757936739 ], [ 76.285012748307736, 11.619707828614137 ], [ 76.285031693777086, 11.619480325503011 ], [ 76.285071948183273, 11.619402455575012 ], [ 76.285203777747853, 11.619175958828077 ], [ 76.28541777621146, 11.619052147098561 ], [ 76.285556593770622, 11.619005406418552 ], [ 76.285711316900233, 11.619001157345419 ], [ 76.285953859331997, 11.619069575422019 ], [ 76.285953859331997, 11.619069575422019 ], [ 76.286083918317146, 11.619065960763008 ], [ 76.286418084416312, 11.619002901322011 ], [ 76.287206768404829, 11.6189294176005 ], [ 76.287343354548852, 11.6188964069815 ], [ 76.287343354548852, 11.6188964069815 ], [ 76.287402089097071, 11.61888753663086 ], [ 76.287449918097749, 11.618878302877983 ], [ 76.28791128564113, 11.618783863231814 ], [ 76.287967100664687, 11.618789773574813 ], [ 76.288004821821787, 11.618843692580267 ], [ 76.288068625563156, 11.619039762402945 ], [ 76.288087462336364, 11.619073950320836 ], [ 76.288673613059245, 11.619059551518445 ], [ 76.288686405068873, 11.619059212754131 ], [ 76.288819485088339, 11.619078099083433 ], [ 76.288903742570412, 11.619097355852361 ], [ 76.289163755437812, 11.61920626985984 ], [ 76.290121961401937, 11.619659196247516 ], [ 76.290442501854869, 11.619821850230833 ], [ 76.291550839659166, 11.6203120386464 ], [ 76.291941519671155, 11.620430441052681 ], [ 76.292156845844758, 11.620473404950769 ], [ 76.292680540299202, 11.620542480833022 ], [ 76.293363499765334, 11.620592941482736 ], [ 76.293582812662152, 11.620600150523334 ], [ 76.293775631546325, 11.620562665797927 ], [ 76.293946371637432, 11.620481928569246 ], [ 76.294217200220857, 11.620258460447735 ], [ 76.294414434324636, 11.620176281848554 ], [ 76.294578220557128, 11.620153298761496 ], [ 76.294663621594552, 11.620162637180677 ], [ 76.294701243038659, 11.620190765943905 ], [ 76.294738898618746, 11.620277330857483 ], [ 76.29482656520733, 11.620846685873106 ], [ 76.294804487312589, 11.621090555785011 ], [ 76.294825913928747, 11.621254642290385 ], [ 76.2950397093731, 11.62174870589908 ], [ 76.29509896763912, 11.621885389343596 ], [ 76.295215629150135, 11.622207088796635 ], [ 76.295278731307263, 11.622239492774176 ], [ 76.29550216567462, 11.622282859386161 ], [ 76.295532369729429, 11.622287411093843 ], [ 76.295570780792659, 11.622293199056818 ], [ 76.295655243090621, 11.622305926767664 ], [ 76.296176294701496, 11.622535160087292 ], [ 76.296401495156701, 11.622565435557746 ], [ 76.296613448156407, 11.622548135037917 ], [ 76.297247242827027, 11.622403142174051 ], [ 76.297495682698639, 11.622390010595064 ], [ 76.297699116076188, 11.622411659574212 ], [ 76.297883355151086, 11.622454645164193 ], [ 76.297984915982141, 11.62254114866149 ], [ 76.298108450503378, 11.622701076804933 ], [ 76.298359769475482, 11.623054003659373 ], [ 76.298458267051444, 11.623084376741735 ], [ 76.298662815238259, 11.623152448897009 ], [ 76.298860336802946, 11.623205993103127 ], [ 76.298919472898092, 11.623231016412786 ], [ 76.298943128234455, 11.623258356481159 ], [ 76.299002823081722, 11.62337303128561 ], [ 76.299147125754018, 11.624033791924717 ], [ 76.299165530437563, 11.624203260749704 ], [ 76.299130205087323, 11.624679024466015 ], [ 76.299055148150387, 11.625082177240083 ], [ 76.299071232485559, 11.625186319915176 ], [ 76.299108402077081, 11.625233648203068 ], [ 76.299214334110317, 11.625314654179995 ], [ 76.299529844895986, 11.625548137516338 ], [ 76.300566936416772, 11.626088727115681 ], [ 76.300878324833604, 11.626238520471146 ], [ 76.301033966939713, 11.626296043801238 ], [ 76.301174663774461, 11.626339483691892 ], [ 76.301213660539247, 11.626357458847426 ], [ 76.301214425005568, 11.626376931564655 ], [ 76.30120767057295, 11.626611422356781 ], [ 76.301243627438836, 11.62671003615443 ], [ 76.301620536490177, 11.627010634348526 ], [ 76.301812748537273, 11.627102291085299 ], [ 76.302889683297451, 11.627232637841754 ], [ 76.302881644273995, 11.628724634767007 ], [ 76.302821352945372, 11.62886137725909 ], [ 76.302755695979556, 11.62898429771337 ], [ 76.302662966486054, 11.629176041969723 ], [ 76.302583973131547, 11.629442486567664 ], [ 76.302480457566404, 11.629989103653433 ], [ 76.302398031749206, 11.630813742053864 ], [ 76.30239361563126, 11.631263544507966 ], [ 76.302355346501841, 11.631566294853728 ], [ 76.302189159970894, 11.632310491296924 ], [ 76.302192714604487, 11.632407968929728 ], [ 76.302258825219496, 11.632524941692084 ], [ 76.30230646018407, 11.632601113331797 ], [ 76.302343610012656, 11.632662988035973 ], [ 76.302349394264766, 11.633189314444945 ], [ 76.302280215004743, 11.63353387108028 ], [ 76.302393550952559, 11.633823644531853 ], [ 76.302523078135067, 11.633918794404101 ], [ 76.302938152796926, 11.634045660556543 ], [ 76.303163353252131, 11.63409755996957 ], [ 76.303912542809201, 11.634088908308348 ], [ 76.304467101580173, 11.634135041993096 ], [ 76.304797826233482, 11.634156743730472 ], [ 76.304943497039957, 11.63419504753475 ], [ 76.304993508946765, 11.634236369251287 ], [ 76.304996368284336, 11.634252706478808 ], [ 76.304975875017746, 11.634300319179586 ], [ 76.304970156342662, 11.634310121689927 ], [ 76.304916402952671, 11.634848296663042 ], [ 76.304945303551989, 11.635019936550712 ], [ 76.305073136511879, 11.635201589097104 ], [ 76.305324612689134, 11.635444818219359 ], [ 76.305930353871744, 11.635878038496836 ], [ 76.306049020422464, 11.63592021782109 ], [ 76.306249032117094, 11.635931465874439 ], [ 76.306475498298553, 11.635929916451589 ], [ 76.306634364458233, 11.635927202102078 ], [ 76.30670646953115, 11.635931713113404 ] ] } }
]
}
